[{"OBJECT_NAME":"STARLINK-4071","OBJECT_ID":"2022-053R","EPOCH":"2026-03-09T12:15:43.875072","MEAN_MOTION":15.08824215,"ECCENTRICITY":0.00012572,"INCLINATION":53.2164,"RA_OF_ASC_NODE":154.9249,"ARG_OF_PERICENTER":86.5025,"MEAN_ANOMALY":273.6111,"EPHEMERIS_TYPE":0,"CLASSIFICATION_TYPE":"U","NORAD_CAT_ID":52671,"ELEMENT_SET_NO":999,"REV_AT_EPOCH":21101,"BSTAR":-0.00010472918,"MEAN_MOTION_DOT":-1.953e-5,"MEAN_MOTION_DDOT":0},{"OBJECT_NAME":"CZ-4B DEB","OBJECT_ID":"2006-015E","EPOCH":"2026-03-09T20:34:53.082912","MEAN_MOTION":15.19885806,"ECCENTRICITY":0.00461993,"INCLINATION":98.0565,"RA_OF_ASC_NODE":201.7753,"ARG_OF_PERICENTER":62.4887,"MEAN_ANOMALY":298.1031,"EPHEMERIS_TYPE":0,"CLASSIFICATION_TYPE":"U","NORAD_CAT_ID":29538,"ELEMENT_SET_NO":999,"REV_AT_EPOCH":5389,"BSTAR":0.0022587151,"MEAN_MOTION_DOT":0.00050103,"MEAN_MOTION_DDOT":0}]
